IRIDIUM 7               
1 24793U 97020B   24320.91975598  .00000995  00000+0  33881-3 0  9995
2 24793  86.3937 266.2354 0002630  87.1852 272.9645 14.35601259441294
IRIDIUM 5               
1 24795U 97020D   24320.87733054  .00008824  00000+0  78326-3 0  9993
2 24795  86.3942 181.7828 0115060 181.1751 178.9226 14.91001434453647
IRIDIUM 4               
1 24796U 97020E   24320.68971278  .00000985  00000+0  32925-3 0  9990
2 24796  86.3937 263.3466 0002380  88.7726 271.3743 14.36515840441819
IRIDIUM 914             
1 24836U 97030A   24320.93661205  .00001290  00000+0  39985-3 0  9993
2 24836  86.3905 272.4921 0002192 129.4136 230.7257 14.40456653576421
IRIDIUM 16              
1 24841U 97030F   24320.92636440  .00001162  00000+0  37565-3 0  9991
2 24841  86.3989 294.8868 0004250  67.9880 292.1770 14.38324401436346
IRIDIUM 911             
1 24842U 97030G   24321.18631158  .00001524  00000+0  41219-3 0  9995
2 24842  86.4415 293.7636 0016693  88.0785 272.2329 14.47101372444253
IRIDIUM 17              
1 24870U 97034B   24320.92084528  .00001027  00000+0  33734-3 0  9995
2 24870  86.3934 324.4668 0002633  52.6261 307.5176 14.37427473432948
IRIDIUM 920             
1 24871U 97034C   24320.95609252  .00001159  00000+0  35345-3 0  9992
2 24871  86.3933 304.1616 0013739  69.5575 290.7098 14.41128381435861
IRIDIUM 921             
1 24873U 97034E   24321.14367450  .00151231  00000+0  17011-2 0  9993
2 24873  86.3760 211.8790 0006588  64.9396 295.2553 15.62076005498967
IRIDIUM 26              
1 24903U 97043A   24320.96725059  .00000940  00000+0  31209-3 0  9995
2 24903  86.4009 200.0837 0002347  82.1512 277.9952 14.36796784426123
IRIDIUM 22              
1 24907U 97043E   24321.14168838  .00000809  00000+0  27397-3 0  9993
2 24907  86.4012 203.3638 0002095  82.0794 278.0641 14.35648991426196
DUMMY MASS 1            
1 24925U 97048A   24320.73333037  .00001076  00000+0  11815-3 0  9992
2 24925  86.3374 233.9267 0006935 162.2821 197.8647 14.86618200473419
DUMMY MASS 2            
1 24926U 97048B   24320.66008255  .00001072  00000+0  11839-3 0  9998
2 24926  86.3369 235.5293 0007169 175.5654 184.5635 14.86373182473183
IRIDIUM 29              
1 24944U 97051A   24320.74861966  .00000967  00000+0  32549-3 0  9990
2 24944  86.3982 233.3285 0002061  84.8815 275.2617 14.36106792422636
IRIDIUM 33              
1 24946U 97051C   24320.50390057  .00000712  00000+0  24496-3 0  9994
2 24946  86.3901 232.6782 0009918  61.8170 298.4026 14.34647925422109
IRIDIUM 28              
1 24948U 97051E   24320.51283263  .00000978  00000+0  32323-3 0  9999
2 24948  86.3991 231.0650 0002694  79.8468 280.3033 14.37054746423150
IRIDIUM 36              
1 24967U 97056C   24320.92389352  .00001147  00000+0  37895-3 0  9994
2 24967  86.3950 262.5375 0002375  79.4819 280.6646 14.37227912421586
IRIDIUM 39              
1 25042U 97069D   24320.94224748  .00001665  00000+0  43695-3 0  9992
2 25042  86.3873 302.5699 0016046 303.4713  56.4956 14.48617540418088
IRIDIUM 38              
1 25043U 97069E   24320.95134522  .00001079  00000+0  35248-3 0  9998
2 25043  86.3933 322.8960 0004156  84.5777 275.5895 14.37707994415318
IRIDIUM 42              
1 25077U 97077A   24320.48871306  .00000968  00000+0  32682-3 0  9995
2 25077  86.3944 328.9974 0002970  92.0501 268.1036 14.35974068410529
IRIDIUM 44              
1 25078U 97077B   24320.94874720  .00001196  00000+0  37502-3 0  9990
2 25078  86.3919 311.2903 0003216  54.6361 305.5138 14.39838008413014
IRIDIUM 45              
1 25104U 97082A   24320.94576849  .00026374  00000+0  12135-2 0  9996
2 25104  86.3615 150.5632 0142386  45.0553 316.2128 15.11503097419718
IRIDIUM 24              
1 25105U 97082B   24320.84687111  .00000965  00000+0  29009-3 0  9998
2 25105  86.3940 170.7181 0013375  66.4190 293.8413 14.41667024412478
IRIDIUM 51              
1 25262U 98018A   24320.93746348  .00039420  00000+0  14106-2 0  9999
2 25262  86.3915 159.8982 0120825 340.6646  19.0031 15.21875304414403
IRIDIUM 57              
1 25273U 98019B   24320.70011027  .00000866  00000+0  29390-3 0  9990
2 25273  86.3987 234.6238 0002318  82.6176 277.5284 14.35581407394159
IRIDIUM 63              
1 25286U 98021B   24321.08071087  .00000898  00000+0  30133-3 0  9993
2 25286  86.4015 171.4611 0001864  86.9691 273.1720 14.36187987393526
IRIDIUM 69              
1 25319U 98026A   24320.90769098  .00001114  00000+0  34403-3 0  9997
2 25319  86.4022 185.4453 0003495  42.0774 318.0693 14.40528452392356
IRIDIUM 71              
1 25320U 98026B   24321.08511185  .00000963  00000+0  29510-3 0  9995
2 25320  86.4017 180.1074 0004171  76.9253 283.2411 14.40769941393153
IRIDIUM 73              
1 25344U 98032C   24321.03700624  .00001608  00000+0  40070-3 0  9992
2 25344  86.4404 137.3234 0002160  69.0885 291.0552 14.51135973399941
IRIDIUM 82              
1 25467U 98051A   24320.97513357  .00037255  00000+0  15184-2 0  9990
2 25467  86.3775 213.3440 0111938  20.8117 339.7627 15.18629297391450
